STARLINK-2657           
1 48655U 21044T   25124.09758669 -.00007690  00000+0 -49797-3 0  9995
2 48655  53.0565  71.4305 0002217  96.5372 263.5870 15.06393637217888
STARLINK-2701           
1 48656U 21044U   25124.09389534 -.00000145  00000+0  91540-5 0  9999
2 48656  53.0562  71.4455 0001635  88.5117 271.6059 15.06387873217887
STARLINK-2734           
1 48657U 21044V   25123.59161291 -.00000300  00000+0 -12379-5 0  9999
2 48657  53.0549  73.3406 0002201  88.4455 271.6786 15.06393846217877
STARLINK-2647           
1 48658U 21044W   25124.15287020 -.00001251  00000+0 -65111-4 0  9999
2 48658  53.0571  71.1818 0001686 100.5502 259.5676 15.06383696217955
STARLINK-2717           
1 48659U 21044X   25123.88378277 -.00002354  00000+0 -13921-3 0  9990
2 48659  53.0548  72.3891 0001405  96.3291 263.7858 15.06389682217859
STARLINK-2726           
1 48662U 21044AA  25124.14272314 -.00008653  00000+0 -56319-3 0  9995
2 48662  53.0548  61.2300 0001529  87.9105 272.2059 15.06367246218033
STARLINK-2667           
1 48663U 21044AB  25124.20539079 -.00003249  00000+0 -19944-3 0  9996
2 48663  53.0545  60.9479 0001357  81.7555 278.3588 15.06379124218047
STARLINK-2666           
1 48666U 21044AE  25123.56410752  .00001714  00000+0  13399-3 0  9994
2 48666  53.0550  64.2985 0001554  89.0017 271.1150 15.06393181217097
STARLINK-2735           
1 48667U 21044AF  25124.19802522  .00004038  00000+0  28990-3 0  9990
2 48667  53.0554  60.9765 0000900 104.7995 255.3093 15.06388203218040
STARLINK-2738           
1 48668U 21044AG  25124.19433664  .00001106  00000+0  93137-4 0  9997
2 48668  53.0541  60.9935 0001504  88.3341 271.7821 15.06394348218104
STARLINK-2707           
1 48669U 21044AH  25124.19063549 -.00006627  00000+0 -42664-3 0  9992
2 48669  53.0549  61.0106 0001402  84.7823 275.3326 15.06380959218032
STARLINK-2763           
1 48670U 21044AJ  25124.05426995 -.00000458  00000+0 -11878-4 0  9997
2 48670  53.0555  61.6279 0001681  93.4877 266.6304 15.06381544218011
STARLINK-2745           
1 48671U 21044AK  25124.21281067  .00000338  00000+0  41573-4 0  9995
2 48671  53.0549  61.2230 0001539  96.8178 263.2986 15.06393058218035
STARLINK-2705           
1 48672U 21044AL  25123.84785251 -.00000123  00000+0  10667-4 0  9991
2 48672  53.0542  62.5486 0001513  95.6624 264.4537 15.06389428218043
STARLINK-2711           
1 48673U 21044AM  25124.50762989 -.00004710  00000+0 -29751-3 0  9999
2 48673  53.0562  59.5871 0001765 140.4620 219.6498 15.06401636218149
STARLINK-2712           
1 48674U 21044AN  25124.11693957 -.00002061  00000+0 -11960-3 0  9995
2 48674  53.0543  61.4578 0001199  86.8521 273.2605 15.06380443218080
STARLINK-2746           
1 48676U 21044AQ  25124.23119318  .00001060  00000+0  90073-4 0  9993
2 48676  53.0548  60.8303 0001638  94.4711 265.6465 15.06385822218108
STARLINK-2615           
1 48678U 21044AS  25124.09112344 -.00003210  00000+0 -19681-3 0  9997
2 48678  53.0539  61.4572 0001258  90.0067 270.1066 15.06381062218020
STARLINK-2648           
1 48679U 21044AT  25123.82205439  .00001079  00000+0  91346-4 0  9994
2 48679  53.0551  62.6686 0002136  85.7600 274.3633 15.06389638217981
STARLINK-2725           
1 48681U 21044AV  25124.14920967  .00017706  00000+0  12057-2 0  9997
2 48681  53.0551  31.4407 0001683  93.3988 266.7194 15.06365392218506
STARLINK-2743           
1 48682U 21044AW  25123.88108139  .00017943  00000+0  12199-2 0  9997
2 48682  53.0565  22.5644 0001357  85.0313 275.0831 15.06415096217703
STARLINK-2756           
1 48683U 21044AX  25124.10218978  .00019463  00000+0  13233-2 0  9996
2 48683  53.0547  21.4214 0001648  76.9618 283.1554 15.06359898218581
STARLINK-2741           
1 48684U 21044AY  25124.05845316 -.00009717  00000+0 -63475-3 0  9990
2 48684  53.0550  36.9611 0001395  80.0454 280.0692 15.06376608218421
STARLINK-2751           
1 48685U 21044AZ  25124.40443505 -.00002881  00000+0 -17468-3 0  9990
2 48685  53.0559  20.0999 0001328 105.6523 254.4612 15.06386616218631
STARLINK-2629           
1 48686U 21044BA  25123.86771070 -.00002252  00000+0 -13240-3 0  9997
2 48686  53.0558  27.7424 0001338  89.5617 270.5525 15.06375107217637
STARLINK-2627           
1 48687U 21044BB  25123.97549017  .00016346  00000+0  11142-2 0  9999
2 48687  53.0561  16.9785 0001065  90.7484 269.3627 15.06384106217790
STARLINK-2742           
1 48688U 21044BC  25123.91281972  .00012060  00000+0  82779-3 0  9991
2 48688  53.0552  17.2595 0001401  83.2838 276.8310 15.06369043217782
STARLINK-2740           
1 48690U 21044BE  25124.12337257  .00014652  00000+0  10015-2 0  9998
2 48690  53.0548  31.3134 0001503  77.6776 282.4381 15.06362784218504
STARLINK-2750           
1 48691U 21044BF  25124.42794515 -.00001992  00000+0 -11495-3 0  9995
2 48691  53.0558  24.9419 0001307  94.8988 265.2150 15.06370031218561
STARLINK-2752           
1 48692U 21044BG  25124.14781321  .00000943  00000+0  82202-4 0  9994
2 48692  53.0553  26.3282 0001157  79.7404 280.3715 15.06384844218527
STARLINK-2618           
1 48693U 21044BH  25124.15561635  .00011859  00000+0  81397-3 0  9991
2 48693  53.0559  31.1716 0001506  86.3025 273.8136 15.06386039218455
STARLINK-2748           
1 48694U 21044BJ  25123.79208327 -.00002622  00000+0 -15726-3 0  9990
2 48694  53.0578  37.7912 0000938  68.7488 291.3601 15.06389451217487
STARLINK-2616           
1 48695U 21044BK  25124.01419253 -.00002392  00000+0 -14184-3 0  9990
2 48695  53.0566  36.8523 0001485  92.3820 267.7339 15.06380737218422
STARLINK-2753           
1 48696U 21044BL  25124.20354157 -.00005115  00000+0 -32494-3 0  9993
2 48696  53.0550  41.0036 0001254  97.3563 262.7569 15.06375470218323
STARLINK-3004           
1 48880U 21059B   25124.28859777  .00000756  00000+0  63451-4 0  9992
2 48880  97.6590 250.1488 0001839  89.9115 270.2319 15.01252367212379
STARLINK-3005           
1 48881U 21059C   25124.08198465  .00000403  00000+0  35966-4 0  9990
2 48881  97.6589 249.8963 0001977  94.2744 265.8706 15.01259828212358
STARLINK-3096           
1 49131U 21082B   25123.85961558  .00000900  00000+0  83197-4 0  9991
2 49131  69.9986 315.6363 0002119 264.0222  96.0695 14.98328637200553
STARLINK-3090           
1 49132U 21082C   25123.80582811 -.00000297  00000+0 -17075-4 0  9991
2 49132  69.9998 355.6569 0003081 269.5885  90.4921 14.98328043199562
STARLINK-3077           
1 49133U 21082D   25124.02283036 -.00002408  00000+0 -19417-3 0  9991
2 49133  70.0002 355.2379 0002418 266.8173  93.2709 14.98313313199592
STARLINK-3078           
1 49134U 21082E   25123.88511323 -.00000568  00000+0 -39802-4 0  9994
2 49134  70.0002 355.5880 0002831 270.4477  89.6358 14.98328931200774
STARLINK-3073           
1 49135U 21082F   25124.52305447  .00000015  00000+0  90244-5 0  9998
2 49135  69.9989 313.9559 0003250 269.0415  91.0372 14.98329784200667
STARLINK-3084           
1 49136U 21082G   25124.31882200  .00000023  00000+0  97007-5 0  9996
2 49136  69.9994 334.4836 0002899 269.8205  90.2622 14.98328247200148
STARLINK-3055           
1 49137U 21082H   25124.58168553  .00001039  00000+0  94881-4 0  9998
2 49137  69.9991 333.8245 0003339 272.7574  87.3203 14.98320745200175
STARLINK-3058           
1 49138U 21082J   25124.08122130 -.00000082  00000+0  89131-6 0  9997
2 49138  70.0005 355.0965 0002783 267.0769  93.0071 14.98328969199603
STARLINK-3057           
1 49139U 21082K   25123.91385425  .00001479  00000+0  13173-3 0  9997
2 49139  69.9986 315.4974 0002855 265.5486  94.5347 14.98322472200561
STARLINK-3093           
1 49141U 21082M   25124.07704674  .00000019  00000+0  93719-5 0  9994
2 49141  70.0001 355.1113 0002936 269.7827  90.2996 14.98331538200809
STARLINK-3042           
1 49142U 21082N   25124.58335648  .01370587  10350-2  26619-2 0  9997
2 49142  69.9930 297.5018 0009346 266.9810 215.6693 16.00275170201053
STARLINK-3109           
1 49143U 21082P   25123.90991229 -.00001513  00000+0 -11905-3 0  9998
2 49143  69.9991 335.5220 0003160 271.2791  88.8006 14.98322186201181
STARLINK-3100           
1 49144U 21082Q   25123.93518228  .00000617  00000+0  59464-4 0  9991
2 49144  69.9999 355.4475 0003056 271.0723  89.0085 14.98328415199581
STARLINK-3119           
1 49145U 21082R   25123.95140648  .00000169  00000+0  21942-4 0  9993
2 49145  69.9979 315.4005 0002971 270.1483  89.9335 14.98330532200564
STARLINK-3116           
1 49146U 21082S   25124.03926354  .00002410  00000+0  20972-3 0  9992
2 49146  70.0006 335.1998 0002927 269.3336  90.7488 14.98329063201250
STARLINK-3071           
1 49147U 21082T   25123.96392268  .00000535  00000+0  52623-4 0  9990
2 49147  69.9982 315.3857 0002967 271.2305  88.8514 14.98332224201742
STARLINK-3048           
1 49148U 21082U   25123.89739664  .00002198  00000+0  19192-3 0  9998
2 49148  69.9990 335.5368 0003022 269.2930  90.7883 14.98331965200063
STARLINK-3102           
1 49151U 21082X   25123.94306251  .00000580  00000+0  56430-4 0  9990
2 49151  69.9980 315.4281 0003060 270.6179  89.4630 14.98330714201775
STARLINK-3072           
1 49153U 21082Z   25123.86794453  .00000417  00000+0  42733-4 0  9998
2 49153  69.9982 315.6245 0003024 268.6483  91.4329 14.98315891201762
STARLINK-3068           
1 49154U 21082AA  25124.56082641  .00000982  00000+0  90124-4 0  9990
2 49154  69.9990 333.8675 0003022 269.2085  90.8728 14.98321161201240
STARLINK-3060           
1 49155U 21082AB  25124.53138643  .00000942  00000+0  86745-4 0  9992
2 49155  69.9987 313.9429 0003047 268.0833  91.9977 14.98320617201735
STARLINK-3085           
1 49156U 21082AC  25124.51052365 -.00000977  00000+0 -74066-4 0  9990
2 49156  69.9990 313.9968 0002984 261.2758  98.8063 14.98332292201732
STARLINK-3051           
1 49157U 21082AD  25124.28960373 -.00000589  00000+0 -41580-4 0  9996
2 49157  69.9993 334.5548 0003069 269.9017  90.1791 14.98315560201223
